GSAT-10                 
1 38779U 12051B   26192.70484959 -.00000160  00000+0  00000+0 0  9995
2 38779   0.1014 265.5508 0007417 187.3708 173.4049  1.00271613 50347
INTELSAT 23 (IS-23)     
1 38867U 12057A   26192.69692006 -.00000280  00000+0  00000+0 0  9994
2 38867   0.0159  27.7172 0000268 159.4665 300.2928  1.00275025 50200
BEIDOU-2 G6             
1 38953U 12059A   26192.08252015 -.00000172  00000+0  00000+0 0  9997
2 38953   4.4780  73.2667 0009064 326.7150   2.6673  1.00273656 50141
LUCH-5B                 
1 38977U 12061A   26192.41905103 -.00000140  00000+0  00000+0 0  9991
2 38977  10.5326  49.6349 0003805 144.8636 229.4311  1.00270884 49854
YAMAL 300K              
1 38978U 12061B   26192.74374939  .00000000  00000+0  00000+0 0  9999
2 38978   0.0166  40.4146 0000531 187.3919 152.5647  1.00271191 49876
STAR ONE C3             
1 38991U 12062A   26192.76385615 -.00000244  00000+0  00000+0 0  9991
2 38991   0.0143 337.9170 0002287 147.7393   4.0136  1.00269558 50019
EUTELSAT 21B            
1 38992U 12062B   26192.64049752  .00000135  00000+0  00000+0 0  9996
2 38992   0.0653   6.3264 0003248 105.1675  70.2116  1.00272376 50077
ECHOSTAR 16             
1 39008U 12065A   26190.84180039 -.00000270  00000+0  00000+0 0  9993
2 39008   0.0180  40.2507 0002124  68.3234  60.7553  1.00271627 49874
ZHONGXING-12            
1 39017U 12067A   26192.29702161 -.00000199  00000+0  00000+0 0  9992
2 39017   0.0253 103.5562 0002693   0.6341  19.4268  1.00269372 49753
EUTELSAT 70B            
1 39020U 12069A   26192.67558613 -.00000038  00000+0  00000+0 0  9993
2 39020   0.0610 352.9547 0003655 116.7966 133.5322  1.00271086 49752
YAMAL 402               
1 39022U 12070A   26191.72034983  .00000093  00000+0  00000+0 0  9991
2 39022   1.3223  83.8652 0003588  25.4313 133.5748  1.00272882 49636
SKYNET 5D               
1 39034U 12075A   26192.68481519  .00000105  00000+0  00000+0 0  9990
2 39034   0.0687 349.7787 0003346 130.9452 108.1665  1.00268699 49402
MEXSAT 3                
1 39035U 12075B   26192.68478667 -.00000020  00000+0  00000+0 0  9998
2 39035   0.0165 299.8868 0000943 159.1419 322.3112  1.00269192  7292
TDRS 11                 
1 39070U 13004A   26192.74426939  .00000083  00000+0  00000+0 0  9990
2 39070   3.5566  31.6478 0004681  30.1990 321.4995  1.00278194 46933
AMAZONAS 3              
1 39078U 13006A   26192.76662950 -.00000278  00000+0  00000+0 0  9994
2 39078   0.0615 229.5892 0003151 280.9065 354.1373  1.00273439 45169
AZERSPACE 1             
1 39079U 13006B   26192.64530128  .00000138  00000+0  00000+0 0  9997
2 39079   0.0158 314.5341 0001551 191.2753  62.0543  1.00269835 49057
SBIRS GEO-2 (USA 241)   
1 39120U 13011A   26192.55508623 -.00000285  00000+0  00000+0 0  9999
2 39120   4.5406  52.5104 0002064  49.8800 337.0966  1.00271364 48789
EUTELSAT 117 WEST A     
1 39122U 13012A   26192.61311073 -.00000008  00000+0  00000+0 0  9993
2 39122   0.0149  38.1187 0002629  78.6527 276.6559  1.00271350 48679
ANIK G1                 
1 39127U 13014A   26192.68626000 -.00000069  00000+0  00000+0 0  9993
2 39127   0.0483 260.2995 0001620 223.4080 305.6280  1.00271162 48499
ZHONGXING-11            
1 39157U 13020A   26192.81633274 -.00000286  00000+0  00000+0 0  9990
2 39157   0.0264  44.8942 0002122  39.9382 236.6744  1.00270253 48140
EUTELSAT 7B             
1 39163U 13022A   26192.63763751  .00000053  00000+0  00000+0 0  9994
2 39163   0.0647   5.5811 0003538  40.9471 119.5564  1.00272064 48190
WGS F5 (USA 243)        
1 39168U 13024A   26192.76836284  .00000000  00000+0  00000+0 0  9999
2 39168   0.0258  42.6036 0000402 197.5006 273.6772  1.00269367 47424
SES-6                   
1 39172U 13026A   26192.77070285 -.00000257  00000+0  00000+0 0  9993
2 39172   0.0323 312.5100 0002289 169.0821  45.0337  1.00271908 47979
IRNSS-1A                
1 39199U 13034A   26191.72043649  .00000047  00000+0  00000+0 0  9995
2 39199  35.7704  63.5328 0017567 183.4462 356.2994  1.00281941 47601
MUOS-2                  
1 39206U 13036A   26192.74166937 -.00000013  00000+0  00000+0 0  9999
2 39206   5.0429  45.5545 0052435 176.3955 146.6410  1.00271813 47438
ALPHASAT                
1 39215U 13038A   26192.56981963  .00000138  00000+0  00000+0 0  9992
2 39215   2.9995   1.2185 0002132 138.2180  20.0372  1.00274146 44269
INSAT-3D                
1 39216U 13038B   26192.71604866 -.00000336  00000+0  00000+0 0  9995
2 39216   1.9865  82.2311 0000504  83.8673 150.8211  1.00270103 47321
WGS F6 (USA 244)        
1 39222U 13041A   26192.68071331  .00000094  00000+0  00000+0 0  9997
2 39222   0.0186  33.7590 0001053 190.2224 175.4792  1.00271581 46304
ES'HAIL 1               
1 39233U 13044A   26192.64127753  .00000148  00000+0  00000+0 0  9998
2 39233   0.0485  13.4385 0002144 102.9497  69.5309  1.00273764 46873
GSAT-7                  
1 39234U 13044B   26192.62544825 -.00000071  00000+0  00000+0 0  9996
2 39234   0.1413  89.8990 0003200 177.3736 321.3702  1.00271118 45507
AMOS-4                  
1 39237U 13045A   26192.63100295  .00000012  00000+0  00000+0 0  9994
2 39237   0.0409 259.6624 0002318 177.0241 145.0223  1.00272235 47201
AEHF-3 (USA 246)        
1 39256U 13050A   26192.75414944  .00000029  00000+0  00000+0 0  9991
2 39256   5.3526  66.9598 0088343 187.6976 182.2259  1.00270197 45905
