OBJECT_NAME,OBJECT_ID,EPOCH,MEAN_MOTION,ECCENTRICITY,INCLINATION,RA_OF_ASC_NODE,ARG_OF_PERICENTER,MEAN_ANOMALY,EPHEMERIS_TYPE,CLASSIFICATION_TYPE,NORAD_CAT_ID,ELEMENT_SET_NO,REV_AT_EPOCH,BSTAR,MEAN_MOTION_DOT,MEAN_MOTION_DDOT
GSAT-10,2012-051B,2026-07-11T16:54:59.004576,1.00271613,.00074176,0.1014,265.5508,187.3708,173.4049,0,U,38779,999,5034,0,-.16E-5,0
INTELSAT 23 (IS-23),2012-057A,2026-07-11T16:43:33.893184,1.00275025,.00002687,0.0159,27.7172,159.4665,300.2928,0,U,38867,999,5020,0,-.28E-5,0
BEIDOU-2 G6,2012-059A,2026-07-11T01:58:49.740960,1.00273656,.00090642,4.4780,73.2667,326.7150,2.6673,0,U,38953,999,5014,0,-.172E-5,0
LUCH-5B,2012-061A,2026-07-11T10:03:26.008992,1.00270884,.00038059,10.5326,49.6349,144.8636,229.4311,0,U,38977,999,4985,0,-.14E-5,0
YAMAL 300K,2012-061B,2026-07-11T17:50:59.947296,1.00271191,.00005319,0.0166,40.4146,187.3919,152.5647,0,U,38978,999,4987,0,0,0
STAR ONE C3,2012-062A,2026-07-11T18:19:57.171360,1.00269558,.00022876,0.0143,337.9170,147.7393,4.0136,0,U,38991,999,5001,0,-.244E-5,0
EUTELSAT 21B,2012-062B,2026-07-11T15:22:18.985728,1.00272376,.00032483,0.0653,6.3264,105.1675,70.2116,0,U,38992,999,5007,0,.135E-5,0
ECHOSTAR 16,2012-065A,2026-07-09T20:12:11.553696,1.00271627,.00021244,0.0180,40.2507,68.3234,60.7553,0,U,39008,999,4987,0,-.27E-5,0
ZHONGXING-12,2012-067A,2026-07-11T07:07:42.667104,1.00269372,.00026931,0.0253,103.5562,0.6341,19.4268,0,U,39017,999,4975,0,-.199E-5,0
EUTELSAT 70B,2012-069A,2026-07-11T16:12:50.641632,1.00271086,.00036554,0.0610,352.9547,116.7966,133.5322,0,U,39020,999,4975,0,-.38E-6,0
YAMAL 402,2012-070A,2026-07-10T17:17:18.225312,1.00272882,.00035884,1.3223,83.8652,25.4313,133.5748,0,U,39022,999,4963,0,.93E-6,0
SKYNET 5D,2012-075A,2026-07-11T16:26:08.032416,1.00268699,.00033466,0.0687,349.7787,130.9452,108.1665,0,U,39034,999,4940,0,.105E-5,0
MEXSAT 3,2012-075B,2026-07-11T16:26:05.568288,1.00269192,.00009438,0.0165,299.8868,159.1419,322.3112,0,U,39035,999,729,0,-.2E-6,0
TDRS 11,2013-004A,2026-07-11T17:51:44.875296,1.00278194,.00046816,3.5566,31.6478,30.1990,321.4995,0,U,39070,999,4693,0,.83E-6,0
AMAZONAS 3,2013-006A,2026-07-11T18:23:56.788800,1.00273439,.0003151,0.0615,229.5892,280.9065,354.1373,0,U,39078,999,4516,0,-.278E-5,0
AZERSPACE 1,2013-006B,2026-07-11T15:29:14.030592,1.00269835,.00015514,0.0158,314.5341,191.2753,62.0543,0,U,39079,999,4905,0,.138E-5,0
SBIRS GEO-2 (USA 241),2013-011A,2026-07-11T13:19:19.450272,1.00271364,.00020649,4.5406,52.5104,49.8800,337.0966,0,U,39120,999,4878,0,-.285E-5,0
EUTELSAT 117 WEST A,2013-012A,2026-07-11T14:42:52.767072,1.00271350,.00026294,0.0149,38.1187,78.6527,276.6559,0,U,39122,999,4867,0,-.8E-7,0
ANIK G1,2013-014A,2026-07-11T16:28:12.864000,1.00271162,.00016207,0.0483,260.2995,223.4080,305.6280,0,U,39127,999,4849,0,-.69E-6,0
ZHONGXING-11,2013-020A,2026-07-11T19:35:31.148736,1.00270253,.0002122,0.0264,44.8942,39.9382,236.6744,0,U,39157,999,4814,0,-.286E-5,0
EUTELSAT 7B,2013-022A,2026-07-11T15:18:11.880864,1.00272064,.00035385,0.0647,5.5811,40.9471,119.5564,0,U,39163,999,4819,0,.53E-6,0
WGS F5 (USA 243),2013-024A,2026-07-11T18:26:26.549376,1.00269367,.00004027,0.0258,42.6036,197.5006,273.6772,0,U,39168,999,4742,0,0,0
SES-6,2013-026A,2026-07-11T18:29:48.726240,1.00271908,.00022893,0.0323,312.5100,169.0821,45.0337,0,U,39172,999,4797,0,-.257E-5,0
IRNSS-1A,2013-034A,2026-07-10T17:17:25.712736,1.00281941,.0017567,35.7704,63.5328,183.4462,356.2994,0,U,39199,999,4760,0,.47E-6,0
MUOS-2,2013-036A,2026-07-11T17:48:00.233568,1.00271813,.00524357,5.0429,45.5545,176.3955,146.6410,0,U,39206,999,4743,0,-.13E-6,0
ALPHASAT,2013-038A,2026-07-11T13:40:32.416032,1.00274146,.00021328,2.9995,1.2185,138.2180,20.0372,0,U,39215,999,4426,0,.138E-5,0
INSAT-3D,2013-038B,2026-07-11T17:11:06.604224,1.00270103,.00005047,1.9865,82.2311,83.8673,150.8211,0,U,39216,999,4732,0,-.336E-5,0
WGS F6 (USA 244),2013-041A,2026-07-11T16:20:13.629984,1.00271581,.00010538,0.0186,33.7590,190.2224,175.4792,0,U,39222,999,4630,0,.94E-6,0
ES'HAIL 1,2013-044A,2026-07-11T15:23:26.378592,1.00273764,.00021446,0.0485,13.4385,102.9497,69.5309,0,U,39233,999,4687,0,.148E-5,0
GSAT-7,2013-044B,2026-07-11T15:00:38.728800,1.00271118,.00032004,0.1413,89.8990,177.3736,321.3702,0,U,39234,999,4550,0,-.71E-6,0
AMOS-4,2013-045A,2026-07-11T15:08:38.654880,1.00272235,.00023185,0.0409,259.6624,177.0241,145.0223,0,U,39237,999,4720,0,.12E-6,0
AEHF-3 (USA 246),2013-050A,2026-07-11T18:05:58.511616,1.00270197,.00883438,5.3526,66.9598,187.6976,182.2259,0,U,39256,999,4590,0,.29E-6,0
